2021/02/08 11:00
LKTB 081100Z 08008KT 9999 SCT017 BKN024 M03/M05 Q0997 R27///99// NOSIG
